{
  "type": "FeatureCollection",
  "features": [
    {
      "type": "Feature",
      "properties": {
        "norad_id": 40376,
        "name": "SMAP",
        "group": "resource",
        "lat": 31.841949241092376,
        "lon": -171.94434820520388,
        "alt_km": 680.0480473041353,
        "timestamp": "2025-12-24T09:46:30.652653+00:00",
        "meta_object_name": "SMAP",
        "meta_object_id": "2015-003A",
        "meta_epoch": "2025-12-24T02:32:18.246336",
        "meta_mean_motion": 14.63358546,
        "meta_eccentricity": 0.0001229,
        "meta_inclination": 98.129,
        "meta_ra_of_asc_node": 2.6658,
        "meta_arg_of_pericenter": 92.1837,
        "meta_mean_anomaly": 267.9506,
        "meta_ephemeris_type": 0,
        "meta_classification_type": "U",
        "meta_norad_cat_id": 40376,
        "meta_element_set_no": 999,
        "meta_rev_at_epoch": 58201,
        "meta_bstar": 0.0001102,
        "meta_mean_motion_dot": 5.22e-06,
        "meta_mean_motion_ddot": 0,
        "tle_line1": "1 40376U 15003A   25358.10576674  .00000522  00000+0  11020-3 0  9993",
        "tle_line2": "2 40376  98.1290   2.6658 0001229  92.1837 267.9506 14.63358546582018"
      },
      "geometry": {
        "type": "Point",
        "coordinates": [
          -171.94434820520388,
          31.841949241092376
        ]
      }
    },
    {
      "type": "Feature",
      "properties": {
        "norad_id": 40536,
        "name": "KOMPSAT-3A",
        "group": "resource",
        "lat": -12.179664449685008,
        "lon": -24.9291740313951,
        "alt_km": 439.3075649815919,
        "timestamp": "2025-12-24T09:46:30.652663+00:00",
        "meta_object_name": "KOMPSAT-3A",
        "meta_object_id": "2015-014A",
        "meta_epoch": "2025-12-24T05:09:47.313216",
        "meta_mean_motion": 15.44355241,
        "meta_eccentricity": 0.000561,
        "meta_inclination": 97.6805,
        "meta_ra_of_asc_node": 333.1987,
        "meta_arg_of_pericenter": 101.7898,
        "meta_mean_anomaly": 258.3979,
        "meta_ephemeris_type": 0,
        "meta_classification_type": "U",
        "meta_norad_cat_id": 40536,
        "meta_element_set_no": 999,
        "meta_rev_at_epoch": 59472,
        "meta_bstar": 0.00046086,
        "meta_mean_motion_dot": 0.00021206,
        "meta_mean_motion_ddot": 0,
        "tle_line1": "1 40536U 15014A   25358.21513094  .00021206  00000+0  46086-3 0  9994",
        "tle_line2": "2 40536  97.6805 333.1987 0005610 101.7898 258.3979 15.44355241594729"
      },
      "geometry": {
        "type": "Point",
        "coordinates": [
          -24.9291740313951,
          -12.179664449685008
        ]
      }
    },
    {
      "type": "Feature",
      "properties": {
        "norad_id": 40697,
        "name": "SENTINEL-2A",
        "group": "resource",
        "lat": 81.2919110716586,
        "lon": -29.19045944307402,
        "alt_km": 780.8067481517628,
        "timestamp": "2025-12-24T09:46:30.652673+00:00",
        "meta_object_name": "SENTINEL-2A",
        "meta_object_id": "2015-028A",
        "meta_epoch": "2025-12-24T04:18:51.224256",
        "meta_mean_motion": 14.30809934,
        "meta_eccentricity": 0.0001059,
        "meta_inclination": 98.5732,
        "meta_ra_of_asc_node": 70.5521,
        "meta_arg_of_pericenter": 90.3191,
        "meta_mean_anomaly": 269.8113,
        "meta_ephemeris_type": 0,
        "meta_classification_type": "U",
        "meta_norad_cat_id": 40697,
        "meta_element_set_no": 999,
        "meta_rev_at_epoch": 54870,
        "meta_bstar": 7.8929e-05,
        "meta_mean_motion_dot": 1.63e-06,
        "meta_mean_motion_ddot": 0,
        "tle_line1": "1 40697U 15028A   25358.17975954  .00000163  00000+0  78929-4 0  9990",
        "tle_line2": "2 40697  98.5732  70.5521 0001059  90.3191 269.8113 14.30809934548705"
      },
      "geometry": {
        "type": "Point",
        "coordinates": [
          -29.19045944307402,
          81.2919110716586
        ]
      }
    },
    {
      "type": "Feature",
      "properties": {
        "norad_id": 40701,
        "name": "GAOFEN-8",
        "group": "resource",
        "lat": -15.957330689475295,
        "lon": 179.3333336391936,
        "alt_km": 457.20784947625816,
        "timestamp": "2025-12-24T09:46:30.652683+00:00",
        "meta_object_name": "GAOFEN-8",
        "meta_object_id": "2015-030A",
        "meta_epoch": "2025-12-24T05:09:48.589344",
        "meta_mean_motion": 15.38939246,
        "meta_eccentricity": 0.00115,
        "meta_inclination": 97.6906,
        "meta_ra_of_asc_node": 176.9173,
        "meta_arg_of_pericenter": 97.8473,
        "meta_mean_anomaly": 262.4077,
        "meta_ephemeris_type": 0,
        "meta_classification_type": "U",
        "meta_norad_cat_id": 40701,
        "meta_element_set_no": 999,
        "meta_rev_at_epoch": 58447,
        "meta_bstar": 0.00085105,
        "meta_mean_motion_dot": 0.00032883,
        "meta_mean_motion_ddot": 0,
        "tle_line1": "1 40701U 15030A   25358.21514571  .00032883  00000+0  85105-3 0  9995",
        "tle_line2": "2 40701  97.6906 176.9173 0011500  97.8473 262.4077 15.38939246584476"
      },
      "geometry": {
        "type": "Point",
        "coordinates": [
          179.3333336391936,
          -15.957330689475295
        ]
      }
    },
    {
      "type": "Feature",
      "properties": {
        "norad_id": 40718,
        "name": "CARBONITE 1 (CBNT-1)",
        "group": "resource",
        "lat": 82.11238062968644,
        "lon": 103.27539869949996,
        "alt_km": 607.0403844394987,
        "timestamp": "2025-12-24T09:46:30.652694+00:00",
        "meta_object_name": "CARBONITE 1 (CBNT-1)",
        "meta_object_id": "2015-032D",
        "meta_epoch": "2025-12-24T04:31:14.532096",
        "meta_mean_motion": 14.8279298,
        "meta_eccentricity": 0.0015258,
        "meta_inclination": 97.6398,
        "meta_ra_of_asc_node": 178.7285,
        "meta_arg_of_pericenter": 144.5519,
        "meta_mean_anomaly": 215.6712,
        "meta_ephemeris_type": 0,
        "meta_classification_type": "U",
        "meta_norad_cat_id": 40718,
        "meta_element_set_no": 999,
        "meta_rev_at_epoch": 56340,
        "meta_bstar": 0.00029321,
        "meta_mean_motion_dot": 2.325e-05,
        "meta_mean_motion_ddot": 0,
        "tle_line1": "1 40718U 15032D   25358.18836264  .00002325  00000+0  29321-3 0  9993",
        "tle_line2": "2 40718  97.6398 178.7285 0015258 144.5519 215.6712 14.82792980563404"
      },
      "geometry": {
        "type": "Point",
        "coordinates": [
          103.27539869949996,
          82.11238062968644
        ]
      }
    },
    {
      "type": "Feature",
      "properties": {
        "norad_id": 40878,
        "name": "YAOGAN-27",
        "group": "resource",
        "lat": -4.478268311086763,
        "lon": -11.700748999379623,
        "alt_km": 1203.8627227072957,
        "timestamp": "2025-12-24T09:46:30.652704+00:00",
        "meta_object_name": "YAOGAN-27",
        "meta_object_id": "2015-040A",
        "meta_epoch": "2025-12-24T04:19:28.957728",
        "meta_mean_motion": 13.1606242,
        "meta_eccentricity": 0.0007546,
        "meta_inclination": 100.1015,
        "meta_ra_of_asc_node": 347.2825,
        "meta_arg_of_pericenter": 258.2571,
        "meta_mean_anomaly": 101.7697,
        "meta_ephemeris_type": 0,
        "meta_classification_type": "U",
        "meta_norad_cat_id": 40878,
        "meta_element_set_no": 999,
        "meta_rev_at_epoch": 49464,
        "meta_bstar": 0.0013749,
        "meta_mean_motion_dot": 4.8e-06,
        "meta_mean_motion_ddot": 0,
        "tle_line1": "1 40878U 15040A   25358.18019627  .00000480  00000+0  13749-2 0  9991",
        "tle_line2": "2 40878 100.1015 347.2825 0007546 258.2571 101.7697 13.16062420494643"
      },
      "geometry": {
        "type": "Point",
        "coordinates": [
          -11.700748999379623,
          -4.478268311086763
        ]
      }
    },
    {
      "type": "Feature",
      "properties": {
        "norad_id": 40894,
        "name": "GAOFEN-9 01",
        "group": "resource",
        "lat": -5.074267900656736,
        "lon": 37.5422887682808,
        "alt_km": 606.0562196447436,
        "timestamp": "2025-12-24T09:46:30.652714+00:00",
        "meta_object_name": "GAOFEN-9 01",
        "meta_object_id": "2015-047A",
        "meta_epoch": "2025-12-24T04:56:17.867904",
        "meta_mean_motion": 14.824493,
        "meta_eccentricity": 0.0027456,
        "meta_inclination": 97.6528,
        "meta_ra_of_asc_node": 36.6654,
        "meta_arg_of_pericenter": 357.2527,
        "meta_mean_anomaly": 2.8532,
        "meta_ephemeris_type": 0,
        "meta_classification_type": "U",
        "meta_norad_cat_id": 40894,
        "meta_element_set_no": 999,
        "meta_rev_at_epoch": 55426,
        "meta_bstar": 0.0001423,
        "meta_mean_motion_dot": 1.097e-05,
        "meta_mean_motion_ddot": 0,
        "tle_line1": "1 40894U 15047A   25358.20576236  .00001097  00000+0  14230-3 0  9995",
        "tle_line2": "2 40894  97.6528  36.6654 0027456 357.2527   2.8532 14.82449300554266"
      },
      "geometry": {
        "type": "Point",
        "coordinates": [
          37.5422887682808,
          -5.074267900656736
        ]
      }
    }
  ]
}